{"type": "FeatureCollection", "features": [ {"type": "Feature", "properties": {"norad_id": 34738, "name": "COSMOS 2251 DEB", "group": "cosmos-2251-debris", "lat": -73.9655907780379, "lon": 49.60119818596605, "alt_km": 711.4106425026457, "timestamp": "2025-12-16T21:38:57.570338+00:00", "meta": {"OBJECT_NAME": "COSMOS 2251 DEB", "OBJECT_ID": "1993-036ZG", "EPOCH": "2025-12-16T08:53:58.585344", "MEAN_MOTION": 14.46311152, "ECCENTRICITY": 0.00474322, "INCLINATION": 74.0147, "RA_OF_ASC_NODE": 136.4794, "ARG_OF_PERICENTER": 282.0601, "MEAN_ANOMALY": 104.2814, "EPHEMERIS_TYPE": 0, "CLASSIFICATION_TYPE": "U", "NORAD_CAT_ID": 34738, "ELEMENT_SET_NO": 999, "REV_AT_EPOCH": 87911, "BSTAR": 0.00031793931, "MEAN_MOTION_DOT": 1.128e-05, "MEAN_MOTION_DDOT": 0}, "tle": {"line1": "1 34738U 93036ZG  25350.37081696  .00001128  00000+0  31794-3 0  9999", "line2": "2 34738  74.0147 136.4794 0047432 282.0601 104.2814 14.46311152879117"}}, "geometry": {"type": "Point", "coordinates": [49.60119818596605, -73.9655907780379]}}, {"type": "Feature", "properties": {"norad_id": 34750, "name": "COSMOS 2251 DEB", "group": "cosmos-2251-debris", "lat": -61.291443856469954, "lon": 162.48069056386467, "alt_km": 718.9532728736558, "timestamp": "2025-12-16T21:38:57.570348+00:00", "meta": {"OBJECT_NAME": "COSMOS 2251 DEB", "OBJECT_ID": "1993-036ZU", "EPOCH": "2025-12-16T01:19:47.144928", "MEAN_MOTION": 14.61356163, "ECCENTRICITY": 0.00387131, "INCLINATION": 74.1072, "RA_OF_ASC_NODE": 195.4387, "ARG_OF_PERICENTER": 147.3882, "MEAN_ANOMALY": 14.3696, "EPHEMERIS_TYPE": 0, "CLASSIFICATION_TYPE": "U", "NORAD_CAT_ID": 34750, "ELEMENT_SET_NO": 999, "REV_AT_EPOCH": 88279, "BSTAR": 0.00070115939, "MEAN_MOTION_DOT": 3.475e-05, "MEAN_MOTION_DDOT": 0}, "tle": {"line1": "1 34750U 93036ZU  25350.05540677  .00003475  00000+0  70116-3 0  9995", "line2": "2 34750  74.1072 195.4387 0038713 147.3882  14.3696 14.61356163882793"}}, "geometry": {"type": "Point", "coordinates": [162.48069056386467, -61.291443856469954]}}, {"type": "Feature", "properties": {"norad_id": 34752, "name": "COSMOS 2251 DEB", "group": "cosmos-2251-debris", "lat": -61.879262703496494, "lon": -40.307572105083196, "alt_km": 606.5137601213619, "timestamp": "2025-12-16T21:38:57.570358+00:00", "meta": {"OBJECT_NAME": "COSMOS 2251 DEB", "OBJECT_ID": "1993-036ZW", "EPOCH": "2025-12-15T10:43:59.268000", "MEAN_MOTION": 14.99998384, "ECCENTRICITY": 0.0047576, "INCLINATION": 74.0135, "RA_OF_ASC_NODE": 355.0943, "ARG_OF_PERICENTER": 122.7305, "MEAN_ANOMALY": 237.8482, "EPHEMERIS_TYPE": 0, "CLASSIFICATION_TYPE": "U", "NORAD_CAT_ID": 34752, "ELEMENT_SET_NO": 999, "REV_AT_EPOCH": 89890, "BSTAR": 0.00065261311, "MEAN_MOTION_DOT": 8.281e-05, "MEAN_MOTION_DDOT": 0}, "tle": {"line1": "1 34752U 93036ZW  25349.44721375  .00008281  00000+0  65261-3 0  9999", "line2": "2 34752  74.0135 355.0943 0047576 122.7305 237.8482 14.99998384898903"}}, "geometry": {"type": "Point", "coordinates": [-40.307572105083196, -61.879262703496494]}}, {"type": "Feature", "properties": {"norad_id": 34754, "name": "COSMOS 2251 DEB", "group": "cosmos-2251-debris", "lat": 72.64218256121613, "lon": -26.46714920048155, "alt_km": 760.6490510625617, "timestamp": "2025-12-16T21:38:57.570368+00:00", "meta": {"OBJECT_NAME": "COSMOS 2251 DEB", "OBJECT_ID": "1993-036ZY", "EPOCH": "2025-12-16T01:53:49.933824", "MEAN_MOTION": 14.40486417, "ECCENTRICITY": 0.00296988, "INCLINATION": 74.0299, "RA_OF_ASC_NODE": 221.4257, "ARG_OF_PERICENTER": 336.8729, "MEAN_ANOMALY": 173.5144, "EPHEMERIS_TYPE": 0, "CLASSIFICATION_TYPE": "U", "NORAD_CAT_ID": 34754, "ELEMENT_SET_NO": 999, "REV_AT_EPOCH": 88181, "BSTAR": 0.00019408266, "MEAN_MOTION_DOT": 5.94e-06, "MEAN_MOTION_DDOT": 0}, "tle": {"line1": "1 34754U 93036ZY  25350.07905016  .00000594  00000+0  19408-3 0  9999", "line2": "2 34754  74.0299 221.4257 0029698 336.8729 173.5144 14.40486417881811"}}, "geometry": {"type": "Point", "coordinates": [-26.46714920048155, 72.64218256121613]}}, {"type": "Feature", "properties": {"norad_id": 34755, "name": "COSMOS 2251 DEB", "group": "cosmos-2251-debris", "lat": -57.7270340774822, "lon": -103.8293232473975, "alt_km": 773.44356955073, "timestamp": "2025-12-16T21:38:57.570378+00:00", "meta": {"OBJECT_NAME": "COSMOS 2251 DEB", "OBJECT_ID": "1993-036ZZ", "EPOCH": "2025-12-15T12:45:24.180768", "MEAN_MOTION": 13.50566127, "ECCENTRICITY": 0.04082662, "INCLINATION": 73.9259, "RA_OF_ASC_NODE": 285.5372, "ARG_OF_PERICENTER": 304.8647, "MEAN_ANOMALY": 172.7755, "EPHEMERIS_TYPE": 0, "CLASSIFICATION_TYPE": "U", "NORAD_CAT_ID": 34755, "ELEMENT_SET_NO": 999, "REV_AT_EPOCH": 82561, "BSTAR": 0.00098242493, "MEAN_MOTION_DOT": 1.036e-05, "MEAN_MOTION_DDOT": 0}, "tle": {"line1": "1 34755U 93036ZZ  25349.53152987  .00001036  00000+0  98242-3 0  9995", "line2": "2 34755  73.9259 285.5372 0408266 304.8647 172.7755 13.50566127825613"}}, "geometry": {"type": "Point", "coordinates": [-103.8293232473975, -57.7270340774822]}}, {"type": "Feature", "properties": {"norad_id": 34756, "name": "COSMOS 2251 DEB", "group": "cosmos-2251-debris", "lat": 72.2418421926008, "lon": -146.07597487718922, "alt_km": 1143.7190291274355, "timestamp": "2025-12-16T21:38:57.570389+00:00", "meta": {"OBJECT_NAME": "COSMOS 2251 DEB", "OBJECT_ID": "1993-036AAA", "EPOCH": "2025-12-16T07:07:56.724384", "MEAN_MOTION": 13.67251664, "ECCENTRICITY": 0.03452742, "INCLINATION": 74.003, "RA_OF_ASC_NODE": 98.5194, "ARG_OF_PERICENTER": 333.5645, "MEAN_ANOMALY": 24.8204, "EPHEMERIS_TYPE": 0, "CLASSIFICATION_TYPE": "U", "NORAD_CAT_ID": 34756, "ELEMENT_SET_NO": 999, "REV_AT_EPOCH": 83470, "BSTAR": 0.00093992777, "MEAN_MOTION_DOT": 1.168e-05, "MEAN_MOTION_DDOT": 0}, "tle": {"line1": "1 34756U 93036AAA 25350.29718431  .00001168  00000+0  93993-3 0  9997", "line2": "2 34756  74.0030  98.5194 0345274 333.5645  24.8204 13.67251664834704"}}, "geometry": {"type": "Point", "coordinates": [-146.07597487718922, 72.2418421926008]}}, {"type": "Feature", "properties": {"norad_id": 34758, "name": "COSMOS 2251 DEB", "group": "cosmos-2251-debris", "lat": 65.21973810860419, "lon": -29.095724655866096, "alt_km": 762.0110747295466, "timestamp": "2025-12-16T21:38:57.570399+00:00", "meta": {"OBJECT_NAME": "COSMOS 2251 DEB", "OBJECT_ID": "1993-036AAC", "EPOCH": "2025-12-16T07:10:57.092160", "MEAN_MOTION": 13.58081164, "ECCENTRICITY": 0.03815332, "INCLINATION": 74.1074, "RA_OF_ASC_NODE": 293.7683, "ARG_OF_PERICENTER": 56.6483, "MEAN_ANOMALY": 307.0539, "EPHEMERIS_TYPE": 0, "CLASSIFICATION_TYPE": "U", "NORAD_CAT_ID": 34758, "ELEMENT_SET_NO": 999, "REV_AT_EPOCH": 82958, "BSTAR": 0.0014988028, "MEAN_MOTION_DOT": 1.726e-05, "MEAN_MOTION_DDOT": 0}, "tle": {"line1": "1 34758U 93036AAC 25350.29927190  .00001726  00000+0  14988-2 0  9999", "line2": "2 34758  74.1074 293.7683 0381533  56.6483 307.0539 13.58081164829581"}}, "geometry": {"type": "Point", "coordinates": [-29.095724655866096, 65.21973810860419]}}, {"type": "Feature", "properties": {"norad_id": 34760, "name": "COSMOS 2251 DEB", "group": "cosmos-2251-debris", "lat": 18.369076451156403, "lon": 109.48798804801211, "alt_km": 896.2487346414091, "timestamp": "2025-12-16T21:38:57.570409+00:00", "meta": {"OBJECT_NAME": "COSMOS 2251 DEB", "OBJECT_ID": "1993-036AAE", "EPOCH": "2025-12-15T15:17:34.568160", "MEAN_MOTION": 14.19579445, "ECCENTRICITY": 0.00969523, "INCLINATION": 74.0638, "RA_OF_ASC_NODE": 297.1884, "ARG_OF_PERICENTER": 348.6722, "MEAN_ANOMALY": 190.5489, "EPHEMERIS_TYPE": 0, "CLASSIFICATION_TYPE": "U", "NORAD_CAT_ID": 34760, "ELEMENT_SET_NO": 999, "REV_AT_EPOCH": 86729, "BSTAR": 0.00062937679, "MEAN_MOTION_DOT": 1.367e-05, "MEAN_MOTION_DDOT": 0}, "tle": {"line1": "1 34760U 93036AAE 25349.63720565  .00001367  00000+0  62938-3 0  9995", "line2": "2 34760  74.0638 297.1884 0096952 348.6722 190.5489 14.19579445867299"}}, "geometry": {"type": "Point", "coordinates": [109.48798804801211, 18.369076451156403]}}, {"type": "Feature", "properties": {"norad_id": 34761, "name": "COSMOS 2251 DEB", "group": "cosmos-2251-debris", "lat": -2.888728918728281, "lon": -5.706412804238805, "alt_km": 745.4453794061747, "timestamp": "2025-12-16T21:38:57.570420+00:00", "meta": {"OBJECT_NAME": "COSMOS 2251 DEB", "OBJECT_ID": "1993-036AAF", "EPOCH": "2025-12-16T01:37:41.554848", "MEAN_MOTION": 14.38061435, "ECCENTRICITY": 0.00365678, "INCLINATION": 74.0293, "RA_OF_ASC_NODE": 356.6582, "ARG_OF_PERICENTER": 29.7556, "MEAN_ANOMALY": 330.5667, "EPHEMERIS_TYPE": 0, "CLASSIFICATION_TYPE": "U", "NORAD_CAT_ID": 34761, "ELEMENT_SET_NO": 999, "REV_AT_EPOCH": 87697, "BSTAR": 0.00047577738, "MEAN_MOTION_DOT": 1.426e-05, "MEAN_MOTION_DDOT": 0}, "tle": {"line1": "1 34761U 93036AAF 25350.06784207  .00001426  00000+0  47578-3 0  9997", "line2": "2 34761  74.0293 356.6582 0036567  29.7556 330.5667 14.38061435876976"}}, "geometry": {"type": "Point", "coordinates": [-5.706412804238805, -2.888728918728281]}}, {"type": "Feature", "properties": {"norad_id": 34784, "name": "COSMOS 2251 DEB", "group": "cosmos-2251-debris", "lat": -28.093028104779087, "lon": 145.19524127679713, "alt_km": 692.6834622648448, "timestamp": "2025-12-16T21:38:57.570430+00:00", "meta": {"OBJECT_NAME": "COSMOS 2251 DEB", "OBJECT_ID": "1993-036AAM", "EPOCH": "2025-12-16T04:15:47.281248", "MEAN_MOTION": 14.60795607, "ECCENTRICITY": 0.00492843, "INCLINATION": 74.007, "RA_OF_ASC_NODE": 317.775, "ARG_OF_PERICENTER": 126.0884, "MEAN_ANOMALY": 234.4861, "EPHEMERIS_TYPE": 0, "CLASSIFICATION_TYPE": "U", "NORAD_CAT_ID": 34784, "ELEMENT_SET_NO": 999, "REV_AT_EPOCH": 88585, "BSTAR": 0.00036043643, "MEAN_MOTION_DOT": 1.76e-05, "MEAN_MOTION_DDOT": 0}, "tle": {"line1": "1 34784U 93036AAM 25350.17763057  .00001760  00000+0  36044-3 0  9991", "line2": "2 34784  74.0070 317.7750 0049284 126.0884 234.4861 14.60795607885859"}}, "geometry": {"type": "Point", "coordinates": [145.19524127679713, -28.093028104779087]}}]}